OBJECT_NAME,OBJECT_ID,EPOCH,MEAN_MOTION,ECCENTRICITY,INCLINATION,RA_OF_ASC_NODE,ARG_OF_PERICENTER,MEAN_ANOMALY,EPHEMERIS_TYPE,CLASSIFICATION_TYPE,NORAD_CAT_ID,ELEMENT_SET_NO,REV_AT_EPOCH,BSTAR,MEAN_MOTION_DOT,MEAN_MOTION_DDOT
DTUSAT-2,2014-033W,2026-05-11T10:38:30.096096,15.14532807,.0008068,98.0870,126.8543,14.4091,345.7368,0,U,40030,999,64712,.23717E-3,.4299E-4,0
QB50P2,2014-033Y,2026-05-11T10:35:13.917120,15.14684348,.0005901,98.0758,126.0504,309.5407,50.5301,0,U,40032,999,64710,.22665E-3,.4121E-4,0
PERSEUS-M1,2014-033AF,2026-05-11T08:55:35.622048,14.95504312,.0012879,97.9625,74.9084,63.1594,297.0942,0,U,40039,999,64513,.10622E-3,.1117E-4,0
POLYITAN-1,2014-033AJ,2026-05-11T11:44:20.169312,15.31985615,.000536,98.0977,154.3150,273.2288,86.8338,0,U,40042,999,64797,.35618E-3,.10919E-3,0
TIGRISAT,2014-033AK,2026-05-11T09:28:29.342784,14.85002615,.0049146,97.7788,282.2635,193.7776,166.2101,0,U,40043,999,64016,.17873E-3,.1502E-4,0
CANX-4,2014-034C,2026-05-11T04:49:09.268608,14.81195001,.0013819,98.3173,5.1488,126.4174,233.8314,0,U,40055,999,63905,.7732E-4,.545E-5,0
CANX-5,2014-034D,2026-05-11T04:47:30.761376,14.81211971,.0013811,98.3174,5.1889,126.6488,233.5995,0,U,40056,999,62986,.76211E-4,.537E-5,0
GONETS-M 10,2014-036C,2026-05-11T12:38:02.020128,12.42944794,.0021128,82.5114,330.4530,220.6146,139.3358,0,U,40063,999,53769,.67867E-3,.104E-5,0
METEOR-M 2,2014-037A,2026-05-11T11:20:01.217184,14.21452407,.0006431,98.5098,108.5161,134.0236,226.1473,0,U,40069,999,61410,.15624E-3,.3E-5,0
DX1,2014-037C,2026-05-11T11:47:52.740096,14.89867474,.0008056,98.3841,90.9762,40.0399,320.1409,0,U,40071,999,64064,.10698E-3,.966E-5,0
UKUBE-1,2014-037F,2026-05-10T22:33:35.841024,15.12954494,.00005199,98.4249,130.3192,43.5376,316.5894,0,U,40074,999,64292,.31570723E-3,.5489E-4,0
GAOFEN-2,2014-049A,2026-05-11T11:40:44.253984,14.80862410,.00074,98.0126,195.7256,4.2398,355.8876,0,U,40118,999,63380,.13017E-3,.952E-5,0
BRITE-PL2 (HEWELIUSZ),2014-049B,2026-05-11T06:45:20.937312,14.94454349,.0012984,97.9056,243.0096,228.2405,131.7706,0,U,40119,999,63593,.89657E-4,.908E-5,0
CBERS 4,2014-079A,2026-05-11T12:19:05.053152,14.35499159,.000195,98.3554,189.4906,105.2335,254.9066,0,U,40336,999,59869,.72242E-4,.166E-5,0
SMAP,2015-003A,2026-05-11T11:58:00.401664,14.63406040,.0001436,98.1287,139.1118,69.4503,290.6853,0,U,40376,999,60225,.61483E-4,.271E-5,0
GONETS-M 11,2015-020A,2026-05-11T13:01:48.999936,12.42875948,.0017385,82.4872,53.8209,81.1903,279.1144,0,U,40552,999,50418,.48382E-3,.77E-6,0
GONETS-M 12,2015-020B,2026-05-11T12:24:14.898240,12.42890636,.0016415,82.4905,54.9514,67.0306,293.2504,0,U,40553,999,50417,.11275E-2,.166E-5,0
GONETS-M 13,2015-020C,2026-05-11T11:45:10.243296,12.42869078,.0014973,82.4869,53.5941,53.1612,307.0839,0,U,40554,999,50414,.45637E-3,.73E-6,0
DMC3-FM1,2015-032A,2026-05-11T13:37:07.402656,14.85694008,.000571,97.6511,358.1697,159.0672,201.0778,0,U,40715,999,58447,-.91503E-5,-.131E-5,0
DMC3-FM2,2015-032B,2026-05-11T12:32:04.540128,14.85701125,.0006123,97.6565,359.6748,165.3628,194.7766,0,U,40716,999,58446,.69391E-4,.551E-5,0
DMC3-FM3,2015-032C,2026-05-11T11:28:20.546976,14.85701710,.0005351,97.6620,1.3620,162.2131,197.9273,0,U,40717,999,58446,.66241E-4,.523E-5,0
CARBONITE 1 (CBNT-1),2015-032D,2026-05-11T11:46:29.464320,14.83471706,.0015808,97.6506,311.0998,58.0864,302.1886,0,U,40718,999,58390,.53521E-4,.39E-5,0
LILACSAT-2,2015-049K,2026-05-11T11:49:47.351424,15.50224359,.0007771,97.4701,166.9666,41.9024,318.2820,0,U,40908,999,59006,.21644E-3,.12144E-3,0
COSMOS 2507 (RODNIK-S 13),2015-050A,2026-05-11T12:38:31.709760,12.42925544,.0011188,82.4891,102.4946,70.6138,289.6150,0,U,40920,999,48230,-.41558E-3,-.48E-6,0
COSMOS 2508 (RODNIK-S 14),2015-050B,2026-05-11T11:33:12.762144,12.42912973,.0015423,82.4844,101.0418,101.3415,258.9398,0,U,40921,999,48228,.14014E-3,.29E-6,0
COSMOS 2509 (RODNIK-S 15),2015-050C,2026-05-11T12:01:11.230752,12.42882610,.001554,82.4852,101.1282,117.4985,242.7676,0,U,40922,999,48232,.10975E-3,.25E-6,0
