DTUSAT-2                
1 40030U 14033W   26131.44340389  .00004299  00000+0  23717-3 0  9992
2 40030  98.0870 126.8543 0008068  14.4091 345.7368 15.14532807647123
QB50P2                  
1 40032U 14033Y   26131.44113330  .00004121  00000+0  22665-3 0  9993
2 40032  98.0758 126.0504 0005901 309.5407  50.5301 15.14684348647105
PERSEUS-M1              
1 40039U 14033AF  26131.37194007  .00001117  00000+0  10622-3 0  9994
2 40039  97.9625  74.9084 0012879  63.1594 297.0942 14.95504312645139
POLYITAN-1              
1 40042U 14033AJ  26131.48912233  .00010919  00000+0  35618-3 0  9991
2 40042  98.0977 154.3150 0005360 273.2288  86.8338 15.31985615647970
TIGRISAT                
1 40043U 14033AK  26131.39478406  .00001502  00000+0  17873-3 0  9992
2 40043  97.7788 282.2635 0049146 193.7776 166.2101 14.85002615640167
CANX-4                  
1 40055U 14034C   26131.20080172  .00000545  00000+0  77320-4 0  9995
2 40055  98.3173   5.1488 0013819 126.4174 233.8314 14.81195001639057
CANX-5                  
1 40056U 14034D   26131.19966159  .00000537  00000+0  76211-4 0  9991
2 40056  98.3174   5.1889 0013811 126.6488 233.5995 14.81211971629861
GONETS-M 10             
1 40063U 14036C   26131.52641227  .00000104  00000+0  67867-3 0  9990
2 40063  82.5114 330.4530 0021128 220.6146 139.3358 12.42944794537697
METEOR-M 2              
1 40069U 14037A   26131.47223631  .00000300  00000+0  15624-3 0  9998
2 40069  98.5098 108.5161 0006431 134.0236 226.1473 14.21452407614102
DX1                     
1 40071U 14037C   26131.49158264  .00000966  00000+0  10698-3 0  9996
2 40071  98.3841  90.9762 0008056  40.0399 320.1409 14.89867474640641
UKUBE-1                 
1 40074U 14037F   26130.93999816  .00005489  00000+0  31571-3 0  9991
2 40074  98.4249 130.3192 0000519  43.5376 316.5894 15.12954494642928
GAOFEN-2                
1 40118U 14049A   26131.48662331  .00000952  00000+0  13017-3 0  9998
2 40118  98.0126 195.7256 0007400   4.2398 355.8876 14.80862410633800
BRITE-PL2 (HEWELIUSZ)   
1 40119U 14049B   26131.28149233  .00000908  00000+0  89657-4 0  9993
2 40119  97.9056 243.0096 0012984 228.2405 131.7706 14.94454349635932
CBERS 4                 
1 40336U 14079A   26131.51325293  .00000166  00000+0  72242-4 0  9993
2 40336  98.3554 189.4906 0001950 105.2335 254.9066 14.35499159598692
SMAP                    
1 40376U 15003A   26131.49861576  .00000271  00000+0  61483-4 0  9993
2 40376  98.1287 139.1118 0001436  69.4503 290.6853 14.63406040602258
GONETS-M 11             
1 40552U 15020A   26131.54292824  .00000077  00000+0  48382-3 0  9994
2 40552  82.4872  53.8209 0017385  81.1903 279.1144 12.42875948504188
GONETS-M 12             
1 40553U 15020B   26131.51683910  .00000166  00000+0  11275-2 0  9991
2 40553  82.4905  54.9514 0016415  67.0306 293.2504 12.42890636504177
GONETS-M 13             
1 40554U 15020C   26131.48970189  .00000073  00000+0  45637-3 0  9992
2 40554  82.4869  53.5941 0014973  53.1612 307.0839 12.42869078504147
DMC3-FM1                
1 40715U 15032A   26131.56744679 -.00000131  00000+0 -91503-5 0  9998
2 40715  97.6511 358.1697 0005710 159.0672 201.0778 14.85694008584478
DMC3-FM2                
1 40716U 15032B   26131.52227477  .00000551  00000+0  69391-4 0  9990
2 40716  97.6565 359.6748 0006123 165.3628 194.7766 14.85701125584464
DMC3-FM3                
1 40717U 15032C   26131.47801559  .00000523  00000+0  66241-4 0  9994
2 40717  97.6620   1.3620 0005351 162.2131 197.9273 14.85701710584462
CARBONITE 1 (CBNT-1)    
1 40718U 15032D   26131.49061880  .00000390  00000+0  53521-4 0  9991
2 40718  97.6506 311.0998 0015808  58.0864 302.1886 14.83471706583903
LILACSAT-2              
1 40908U 15049K   26131.49290916  .00012144  00000+0  21644-3 0  9994
2 40908  97.4701 166.9666 0007771  41.9024 318.2820 15.50224359590063
COSMOS 2507 (RODNIK-S *)
1 40920U 15050A   26131.52675590 -.00000048  00000+0 -41558-3 0  9997
2 40920  82.4891 102.4946 0011188  70.6138 289.6150 12.42925544482305
COSMOS 2508 (RODNIK-S *)
1 40921U 15050B   26131.48139771  .00000029  00000+0  14014-3 0  9993
2 40921  82.4844 101.0418 0015423 101.3415 258.9398 12.42912973482281
COSMOS 2509 (RODNIK-S *)
1 40922U 15050C   26131.50082443  .00000025  00000+0  10975-3 0  9998
2 40922  82.4852 101.1282 0015540 117.4985 242.7676 12.42882610482320
